#dP2022  1 17  0  0  0.00000000      97 __u+U IGS14 FIT  IAC
## 2193  86400.00000000   900.00000000 59596 0.0000000000000
+  123   C01C02C03C04C05C06C07C08C09C10C11C12C13C14C16C19C20
+        C21C22C23C24C25C26C27C28C29C30C32C33C34C35C36C37C38
+        C40C41C42C43C44C45C46C59C60E01E02E03E04E05E07E08E09
+        E11E12E13E14E15E18E19E21E24E25E26E27E30E31E33E36G01
+        G02G03G04G05G06G07G08G09G10G11G12G13G14G15G16G17G18
+        G19G20G21G22G23G24G25G26G27G28G29G30G31G32J01J02J03
+        J07R01R02R03R04R05R07R08R09R11R12R13R14R15R17R18R19
+        R20R21R22R24  0  0  0  0  0  0  0  0  0  0  0  0  0
++        15 15 15 15 15  8  9  9  8  9  8  8  8  8  9  7  7
++         6  6  7  7  7  7  7  7  7  7  7  7  7  7  7  7  7
++         7  7  7  7  7  7  7  0 15  4  4  4  4  4  4  4  4
++         4  4  4  4  4  4  4  4  4  4  4  4  4  5  5  4  3
++         3  3  3  4  3  3  3  3  3  3  3  3  3  3  4  3  3
++         3  4  3  4  3  3  3  3  3  4  3  3  4  3  8  8  8
++        14  6  5  5  5  5  5  5  5  7  6  7  5  5  6  5  7
++         7  6  7  6  0  0  0  0  0  0  0  0  0  0  0  0  0
%c M  cc GPS ccc cccc cccc cccc cccc ccccc ccccc ccccc ccccc
%c cc cc ccc ccc cccc cccc cccc cccc ccccc ccccc ccccc ccccc
%f  1.2500000  1.025000000  0.00000000000  0.000000000000000
%f  0.0000000  0.000000000  0.00000000000  0.000000000000000
%i    0    0    0    0      0      0      0      0         0
%i    0    0    0    0      0      0      0      0         0
/* INFORMATION & ANALYSIS CENTER (IAC)            FINAL DATA
/* S/V CLOCKS ARE ALIGNED TO GNSS TIME                      
/* G:C1WC2W R:C1PC2P E:C1XC5X C:C2IC6I J:C1CC2S             
/* PCV:IGS14_2188 OL/AL:FES2004  NONE     YN ORB:CoN CLK:CoN
*  2022 01 17  7 45  0.00000000
PC01 -34335.308541  24514.213305   -292.780433   -228.488843
PC02   4442.540916  41882.332609   -957.426917    703.579512
PC03 -14709.980315  39492.905249  -1217.966656    598.514247
PC04 -39641.005107  14437.970053   -211.334526    -65.503987
PC05  21926.367964  35979.885758   -964.697110   -511.843402
PC06 -16675.449212  37189.881278  10334.416566   -108.210546
PC07  -1755.609742  34789.497289  23843.169272    -10.348789
PC08 -10905.798509  19928.817280 -35519.255377     65.399451
PC09 -10761.539033  36187.324737  18593.451231   -441.848335
PC10   4329.439974  37456.882607  19573.609826    139.526566
PC11 -20372.766647  10051.061940  16299.585841   -265.576020
PC12 -13048.538377  -8143.166764  23327.561321   -434.048978
PC13  -3988.105978  22205.162362 -35503.993338   -144.488273
PC14 -16949.514307    194.101308 -22139.510420    468.728252
PC16 -18662.890359  36934.155906   7545.145156     57.936645
PC19  12206.756298 -10629.316847  22754.334959    908.909854
PC20  18665.372960   8508.881707  18942.427793   -806.468723
PC21 -14250.327830 -23725.895789  -3493.091019   -965.264672
PC22  -1539.915667 -24359.803399  13507.303006   -959.546489
PC23  -5025.476656  15792.077007  22450.265868   -969.001636
PC24 -27259.023616  -4780.117939  -3736.748210   -945.240368
PC25 -22363.667749   8960.714022  14094.114878   -793.594502
PC26 -16859.914833 -13551.106466 -17665.720999    792.355737
PC27   6590.360553  16532.239570 -21504.463362    662.646199
PC28  -9078.433304  24586.446485  -9580.247563     21.800542
PC29  18859.825860 -18874.226289  -8186.051908    502.512164
PC30  18172.168899  -1142.791081 -21155.503009    491.333305
PC32  14429.986182  23636.992814   3469.363688   -958.611751
PC33 -12201.179360  10641.548959 -22727.228279   -955.106061
PC34 -18522.220972   2032.446198  20760.181067   -490.003060
PC35   8711.617374 -24971.734574   8957.682000     96.756208
PC36  22866.509654  -8159.474244 -13731.752961   -869.014718
PC37  15445.498115  14303.969688  18313.839422   -943.698377
PC38 -18707.251754  20580.837236 -31724.011688    204.677245
PC40  -5110.208770  31188.977220  27985.191669    236.307052
PC41   1325.005463  24207.743917 -13764.730700   -924.298445
PC42 -18759.679698  -9444.874839 -18327.348305   -929.220792
PC43 -19138.211290  18316.006539   8732.756603   -947.523512
PC44  -7054.168132 -16569.511519  21320.670735    534.314742
PC45   4703.695343 -15724.059967 -22570.636628    655.957511
PC46  27507.575496   3843.491339   2440.514595   -118.928582
PC59      0.000000      0.000000      0.000000 999999.999999
PC60   7267.399248  41522.634001   -870.344574     -0.274964
PE01 -14520.780688   9818.500511  23852.773478   -561.086852
PE02  14352.061746  -9962.456695 -23894.472964    274.134057
PE03  12430.831289 -21524.874457  16059.764508   -517.934135
PE04   -682.033594  29568.732724   1138.050770   -944.503645
PE05  17101.088887   -680.243177  24148.183151   -217.863388
PE07 -11752.662592 -20282.206695 -18071.120455   -629.276371
PE08    288.393827 -29554.474703  -1551.076390   5870.746635
PE09  11825.075613  20056.005478  18282.281680   5392.313216
PE11  15223.738954   9406.236707 -23581.353123   4660.843880
PE12  -5957.532889  19099.405656 -21801.642375   4806.020332
PE13 -14609.349442  -9760.742582  23831.145876    425.715475
PE14  19738.112001  -9491.395256 -20247.910643  -1713.046419
PE15   6084.829503 -19099.379024  21794.307320    768.826974
PE18 -13006.666347  23416.650576   7640.017330  -1885.864764
PE19 -13451.076778  19424.022845 -17826.935903    479.564806
PE21 -25620.764544  -5504.458720  13773.115269   -711.714962
PE24  21812.123632  19096.796852   5877.853629  -1339.679048
PE25  25669.917689   5694.413831 -13577.724404   -560.543157
PE26 -26890.825189   5867.049109  10906.709644   -697.255802
PE27 -22599.196747 -18530.944385  -4758.659960   -211.368946
PE30  -5055.790701 -20353.288829 -20909.739430   -198.597668
PE31   6286.186061  20548.850991  20356.150485   -490.869496
PE33 -23123.771924  17132.347322  -6897.213914   -460.313508
PE36  26612.162569  -5276.138051 -11836.539318   -319.212028
PG01    219.326660  15243.820222 -21984.221491    455.190717
PG02  19512.595580 -15716.872444   9645.274620   -648.830827
PG03   9274.589252  20712.396703 -13988.760523    -81.594556
PG04    390.082567  25085.766547   8596.758533   -194.560982
PG05   5843.810518 -14463.793399  21316.415950    -68.182060
PG06  25569.473502  -4986.960714  -5290.985779    173.311496
PG07  16958.183664   8669.461035  19083.384141    302.516865
PG08  -6173.926847  25518.310636   2481.379969    -52.503050
PG09   9172.171357  18021.993403  17130.119960   -357.654088
PG10 -22376.146638  -9639.078969 -10788.682510   -295.683374
PG11  21976.107279 -12299.815794   8418.355120    -51.509314
PG12  -5556.474217 -20882.048120 -15794.658208   -157.053843
PG13  13153.690209 -21429.981417   8147.914795    246.663198
PG14  22029.880753  10508.536136 -10556.003026    -71.779108
PG15   2851.188491 -26165.117134   1424.437646    -90.919116
PG16 -10415.256628  10615.149512  21736.098589   -456.786219
PG17  14135.523118   3600.029997 -21760.543294    562.570229
PG18 -16973.537947  -8073.874653  18803.232489    259.220669
PG19  16120.659122  -5079.238890 -20702.248184    106.644994
PG20  14894.008860  -8131.817260  20369.111394    517.136391
PG21  -9627.248890  17110.915074 -16909.095549    156.276742
PG22   1746.827702  18273.103907 -19097.341661   -415.590864
PG23 -20642.616552 -16793.201660   -224.340961     10.365477
PG24   3505.964130 -17497.816620 -19842.951738    277.118533
PG25 -16354.184635 -20162.847657  -6555.066664    272.092551
PG26 -19871.519225    852.424670  17668.875794    175.100767
PG27 -12237.229033  19863.037885  12128.362874     73.052724
PG28  19803.440095   4392.153672 -16500.523160    420.374945
PG29  -5061.773443 -20873.305782  15546.371365   -468.356941
PG30  23528.452268   2063.827630  12451.250782   -507.291168
PG31 -25974.012444   6039.963703  -2959.943693   -160.335614
PG32 -15520.432542   1224.032385 -21377.866088    -51.868595
PJ01 -21196.050515  24981.700310 -21996.927132    291.704365
PJ02 -27625.311408  20615.704157  29231.294831     -0.820131
PJ03 -33191.992744  26094.910945   6751.608600     -0.189024
PJ07 -25411.666708  33641.108423     23.179092     -0.022443
PR01 -12677.688298  -7454.925365 -20840.516691      7.162532
PR02  -6480.990403  13405.341578 -20652.864579    506.769426
PR03   2929.627879  24153.273885  -7522.701841     50.069329
PR04  10391.675343  21224.187570   9611.585454    123.890807
PR05  12136.041889   6592.006820  21447.625567     86.115435
PR07  -3247.292044 -24367.172897   6941.937965     30.749502
PR08 -10480.297812 -21197.865717  -9549.821589    -63.121772
PR09  16281.890268  -5632.462589 -18825.528941     34.527056
PR11 -18202.567627 -11207.502853 -13904.972075     47.087887
PR12 -24825.032557  -4336.159689   4053.576702    295.616884
PR13 -17080.891001   4854.623184  18294.859635    -17.156955
PR14   1733.724558  11719.155105  22597.324828     73.315927
PR15  18568.656175  11368.242032  13300.609131     98.841119
PR17  -9269.649450  18726.831621 -14641.508153    493.338895
PR18   4715.986588   9869.538945 -23017.563162    104.123658
PR19  15800.281482  -2769.854728 -19825.299583   -174.725457
PR20  19350.754409 -16414.881351  -2805.905724    -63.191558
PR21   8259.864852 -18238.105175  15796.874233   -270.718044
PR22  -5290.445025  -9282.862387  23161.371699   -158.629825
PR24 -18862.831341  17050.409980   2139.352842     76.030951
EOF
